GSAT0222 (GALILEO 26)   
1 43565U 18060B   23087.59506170 -.00000106  00000+0  00000+0 0  9997
2 43565  57.2585  13.5066 0004357 314.8844  45.0805  1.70475493 29158
GSAT0219 (GALILEO 23)   
1 43566U 18060C   23086.64240905 -.00000107  00000+0  00000+0 0  9995
2 43566  57.2588  13.5344 0004066 317.2725  42.6957  1.70475492 29119
GSAT0220 (GALILEO 24)   
1 43567U 18060D   23086.86273141 -.00000107  00000+0  00000+0 0  9998
2 43567  57.2587  13.5283 0004307 309.2246  50.7371  1.70475644 29106
BEIDOU-3 M13            
1 43622U 18072A   23087.63152313  .00000008  00000+0  00000+0 0  9995
2 43622  55.6595 101.8131 0008825 287.6797 137.5102  1.86231405 30741
BEIDOU-3 M14            
1 43623U 18072B   23087.55558734  .00000007  00000+0  00000+0 0  9993
2 43623  55.6605 101.8076 0006423 304.3523 160.1653  1.86231412 30749
GPS BIII-1              
1 43873U 18109A   23087.79275163 -.00000010  00000+0  00000+0 0  9994
2 43873  55.1490 138.6666 0023856 193.8120 112.7181  2.00561199 31474
METEOR-M2 2             
1 44387U 19038A   23088.47924155  .00000153  00000+0  86361-4 0  9991
2 44387  98.7659  52.5820 0001646 128.3308 231.8016 14.23766604193964
GPS BIII-2              
1 44506U 19056A   23087.87019146 -.00000106  00000+0  00000+0 0  9992
2 44506  55.7849  17.7560 0030361 185.2011  78.2240  2.00563030 26477
BEIDOU-3 M23            
1 44542U 19061A   23087.77912028  .00000003  00000+0  00000+0 0  9993
2 44542  54.5164 222.4628 0007530 357.2795   2.6823  1.86231198 23886
BEIDOU-3 M24            
1 44543U 19061B   23088.41133149 -.00000004  00000+0  00000+0 0  9997
2 44543  54.5154 222.4103 0004678 356.6832 338.8165  1.86231553 23887
BEIDOU-3 M21            
1 44793U 19078A   23087.36327598 -.00000109  00000+0  10000-3 0  9999
2 44793  54.8480 340.8311 0007485  14.7037 170.4593  1.86232075 22731
BEIDOU-3 M22            
1 44794U 19078B   23087.50692499 -.00000109  00000+0  00000+0 0  9996
2 44794  54.8212 340.8112 0005417   7.6008 186.0491  1.86232585 22732
ELEKTRO-L 3             
1 44903U 19095A   23087.92549644 -.00000104  00000+0  00000+0 0  9991
2 44903   0.0559  72.7172 0000483 298.9527 223.5692  1.00272360 11893
GPS BIII-3              
1 45854U 20041A   23087.74607840 -.00000013  00000+0  00000+0 0  9992
2 45854  55.7515  75.0314 0030577 187.4532 288.9217  2.00566474 20449
GPS BIII-4              
1 46826U 20078A   23087.84369542  .00000024  00000+0  00000+0 0  9998
2 46826  54.3960 258.5427 0029001 188.4400 334.3456  2.00563726 17912
GSAT0223 (GALILEO 27)   
1 49809U 21116A   23084.67688418 -.00000108  00000+0  00000+0 0  9994
2 49809  57.2503  13.4839 0000946 286.1192 262.5358  1.70475560  8071
GSAT0224 (GALILEO 28)   
1 49810U 21116B   23087.60094111 -.00000106  00000+0  00000+0 0  9991
2 49810  57.2516  13.4035 0000860 337.8906 317.7938  1.70475736  8147
GOES 18                 
1 51850U 22021A   23087.25503941  .00000089  00000+0  00000+0 0  9990
2 51850   0.0448  18.5389 0000724 291.0023 190.6596  1.00271527  3982
